{"type": "FeatureCollection", "features": [{"type": "Feature", "geometry": {"type": "MultiPolygon", "coordinates": [[[[121.78223020300004, -7.422404336999932], [121.82435313200006, -7.395666087999928], [121.83826649000002, -7.346031550999953], [121.81718684500004, -7.330177201999959], [121.7537909780001, -7.352875413999925], [121.74484073400004, -7.411023396999951], [121.78223020300004, -7.422404336999932]]], [[[121.13524808500006, -7.33928038099998], [121.08252702400011, -7.303877918999945], [121.08210937900003, -7.362454666999952], [121.09974648900004, -7.397583233999967], [121.15632825700004, -7.372076740999944], [121.13524808500006, -7.33928038099998]]], [[[120.92111436300002, -7.284286319999978], [120.81398189200002, -7.259162697999955], [120.80562872100006, -7.287411005999957], [120.89773622900009, -7.310785799999962], [120.93215360900001, -7.307938462999971], [121.00063561000002, -7.33228014499997], [121.05151146100002, -7.326652718999981], [121.06368061900002, -7.30127398299993], [121.00333380000006, -7.281833666999944], [120.92111436300002, -7.284286319999978]]], [[[120.73807250400012, -7.13300845699996], [120.76781042300001, -7.134590207999963], [120.78335651100008, -7.095442236999929], [120.67270375500004, -7.042865092999932], [120.65726105200008, -7.018726946999948], [120.60407394300012, -7.074611839999932], [120.62536321800007, -7.118009401999927], [120.73807250400012, -7.13300845699996]]], [[[120.49878651300003, -6.459320683999977], [120.49312664900003, -6.400299016999952], [120.53844230700008, -6.327585012999975], [120.52508194400002, -6.221288053999956], [120.5682928120001, -6.056121879999978], [120.55866110800002, -5.992136889999927], [120.53450192300011, -5.919411996999941], [120.53004469500002, -5.844751282999937], [120.48197672900005, -5.76886071499996], [120.46228896100001, -5.790843207999956], [120.44511463600008, -5.959332882999945], [120.4509528430001, -6.064260265999962], [120.46582711400004, -6.091715417999978], [120.43011454000009, -6.169450526999981], [120.4472225720001, -6.215963288999944], [120.44577330400011, -6.266553397999928], [120.48066104800012, -6.284180102999926], [120.46121695400007, -6.412840736999954], [120.49878651300003, -6.459320683999977]]]]}, "properties": {"OBJECTID": 40649, "NAMOBJ": "Barat Lambongan", "FCODE": "BA03070040", "REMARK": null, "METADATA": "TASWIL1000020221227_DATA_BATAS_DESAKELURAHAN", "SRS_ID": "SRGI 2013", "KDBBPS": null, "KDCBPS": null, "KDCPUM": "73.01.03", "KDEBPS": null, "KDEPUM": "73.01.03.2007", "KDPBPS": null, "KDPKAB": "73.01", "KDPPUM": "73", "LUASWH": 0, "TIPADM": 1, "WADMKC": "Bontomatene", "WADMKD": "Barat Lambongan", "WADMKK": "Kepulauan Selayar", "WADMPR": "Sulawesi Selatan", "WIADKC": null, "WIADKK": null, "WIADPR": null, "WIADKD": null, "UUPP": "Hasil Delineasi Batas Desa 2019", "LUAS": 9.36144297, "id_kab": "7301", "nama_kab": "Kepulauan Selayar"}}, {"type": "Feature", "geometry": {"type": "Polygon", "coordinates": [[[120.10194161400011, -5.585734742999932], [120.13002483200012, -5.58828843799995], [120.21975180000004, -5.540628099999935], [120.27624150000008, -5.537687299999959], [120.31211051200012, -5.507117755999957], [120.3411190700001, -5.511881374999973], [120.37997324500009, -5.569958456999927], [120.43385705000003, -5.611606258999927], [120.44759296500001, -5.567022702999964], [120.44897753500004, -5.474377621999963], [120.41294989900007, -5.406096057999946], [120.40589023300004, -5.345943503999933], [120.36192477300006, -5.322353324999938], [120.33438798200007, -5.287631655999974], [120.25803864400007, -5.287927536999973], [120.17833062200009, -5.312889470999949], [120.15319676500008, -5.301917426999978], [120.04463976000011, -5.345894107999925], [119.99300178600004, -5.32375185799998], [119.95557914200003, -5.354370424999956], [119.97214416400004, -5.392352062999976], [120.02872675200001, -5.393332550999958], [120.0914581190001, -5.491947107999977], [120.10156471300002, -5.585336651999967], [120.10195490600006, -5.58565624299996], [120.10194161400011, -5.585734742999932]]]}, "properties": {"OBJECTID": 40656, "NAMOBJ": "Barombong", "FCODE": "BA03070040", "REMARK": null, "METADATA": "TASWIL1000020221227_DATA_BATAS_DESAKELURAHAN", "SRS_ID": "SRGI 2013", "KDBBPS": null, "KDCBPS": null, "KDCPUM": "73.02.01", "KDEBPS": null, "KDEPUM": "73.02.01.2019", "KDPBPS": null, "KDPKAB": "73.02", "KDPPUM": "73", "LUASWH": 0, "TIPADM": 1, "WADMKC": "Gantorang", "WADMKD": "Barombong", "WADMKK": "Bulukumba", "WADMPR": "Sulawesi Selatan", "WIADKC": null, "WIADKK": null, "WIADPR": null, "WIADKD": null, "UUPP": "Hasil Delineasi Batas Desa 2019", "LUAS": 8.33786275, "id_kab": "7302", "nama_kab": "Bulukumba"}}, {"type": "Feature", "geometry": {"type": "Polygon", "coordinates": [[[120.10156471300002, -5.585336651999967], [120.0914581190001, -5.491947107999977], [120.02872675200001, -5.393332550999958], [119.97214416400004, -5.392352062999976], [119.95557914200003, -5.354370424999956], [119.93757130000006, -5.355870180999943], [119.9395099940001, -5.381985670999939], [119.93112670800008, -5.422870662999969], [119.87981145000003, -5.490937402999975], [119.85742136800002, -5.552261059999978], [119.90740932900007, -5.576730082999973], [119.9296817610001, -5.546834904999969], [120.08391959800008, -5.588555398999972], [120.10156471300002, -5.585336651999967]]]}, "properties": {"OBJECTID": 40659, "NAMOBJ": "Barua", "FCODE": "BA03070040", "REMARK": null, "METADATA": "TASWIL1000020221227_DATA_BATAS_DESAKELURAHAN", "SRS_ID": "SRGI 2013", "KDBBPS": null, "KDCBPS": null, "KDCPUM": "73.03.03", "KDEBPS": null, "KDEPUM": "73.03.03.2003", "KDPBPS": null, "KDPKAB": "73.03", "KDPPUM": "73", "LUASWH": 0, "TIPADM": 1, "WADMKC": "Eremerasa", "WADMKD": "Barua", "WADMKK": "Bantaeng", "WADMPR": "Sulawesi Selatan", "WIADKC": null, "WIADKK": null, "WIADPR": null, "WIADKD": null, "UUPP": "Hasil Delineasi Batas Desa 2019", "LUAS": 5.43813033, "id_kab": "7303", "nama_kab": "Bantaeng"}}, {"type": "Feature", "geometry": {"type": "Polygon", "coordinates": [[[119.5091969670001, -5.537547608999944], [119.51031563400011, -5.566249456999969], [119.59366587600005, -5.617904524999972], [119.6506987030001, -5.628810646999966], [119.6470035860001, -5.68151981799997], [119.70451590000005, -5.702789], [119.78959410000004, -5.701178899999945], [119.85372610000002, -5.659183499999926], [119.85756553700003, -5.630143302999954], [119.90740932900007, -5.576730082999973], [119.85742136800002, -5.552261059999978], [119.87981145000003, -5.490937402999975], [119.93112670800008, -5.422870662999969], [119.9395099940001, -5.381985670999939], [119.90814270100009, -5.420555739999941], [119.85928920800006, -5.448577790999934], [119.80385688100012, -5.555558266999981], [119.73164786000007, -5.563277218999929], [119.70471941700009, -5.542405205999955], [119.70072632200004, -5.49719227099996], [119.6646753330001, -5.478903700999979], [119.63663041600012, -5.430952901999945], [119.57372075800004, -5.446432886999958], [119.53111854200006, -5.431550529999981], [119.52831666700001, -5.481169443999931], [119.4877649450001, -5.492160060999936], [119.5091969670001, -5.537547608999944]]]}, "properties": {"OBJECTID": 40650, "NAMOBJ": "Baraya", "FCODE": "BA03070040", "REMARK": null, "METADATA": "TASWIL1000020221227_DATA_BATAS_DESAKELURAHAN", "SRS_ID": "SRGI 2013", "KDBBPS": null, "KDCBPS": null, "KDCPUM": "73.04.07", "KDEBPS": null, "KDEPUM": "73.04.07.2012", "KDPBPS": null, "KDPKAB": "73.04", "KDPPUM": "73", "LUASWH": 0, "TIPADM": 1, "WADMKC": "Bontoramba", "WADMKD": "Baraya", "WADMKK": "Jeneponto", "WADMPR": "Sulawesi Selatan", "WIADKC": null, "WIADKK": null, "WIADPR": null, "WIADKD": null, "UUPP": "Hasil Delineasi Batas Desa 2019", "LUAS": 9.24142059, "id_kab": "7304", "nama_kab": "Jeneponto"}}, {"type": "Feature", "geometry": {"type": "MultiPolygon", "coordinates": [[[[119.36572646200011, -5.422578370999929], [119.43055248900009, -5.508629353999936], [119.41836585700003, -5.560349362999943], [119.44024198700004, -5.596332998999969], [119.5091969670001, -5.537547608999944], [119.4877649450001, -5.492160060999936], [119.52831666700001, -5.481169443999931], [119.53111854200006, -5.431550529999981], [119.57372075800004, -5.446432886999958], [119.63663041600012, -5.430952901999945], [119.64612742700001, -5.399687072999939], [119.56961538200005, -5.292996391999964], [119.48144701100011, -5.311025952999955], [119.45689647000006, -5.372371068999939], [119.42094889200007, -5.411290129999941], [119.36572646200011, -5.422578370999929]]], [[[119.36542788000008, -5.422127291999971], [119.40055670000004, -5.382151843999964], [119.39445253600002, -5.310580239999979], [119.37650408000002, -5.292846296999926], [119.40652222200004, -5.232338888999948], [119.38379485500002, -5.21050298199998], [119.36928275000002, -5.301155009999945], [119.35417156000005, -5.32576649799995], [119.36542788000008, -5.422127291999971]]]]}, "properties": {"OBJECTID": 40647, "NAMOBJ": "Barangmamase", "FCODE": "BA03070040", "REMARK": "Barammamase", "METADATA": "TASWIL1000020221227_DATA_BATAS_DESAKELURAHAN", "SRS_ID": "SRGI 2013", "KDBBPS": null, "KDCBPS": null, "KDCPUM": "73.05.05", "KDEBPS": null, "KDEPUM": "73.05.05.2012", "KDPBPS": null, "KDPKAB": "73.05", "KDPPUM": "73", "LUASWH": 0, "TIPADM": 1, "WADMKC": "Galesong Selatan", "WADMKD": "Barangmamase", "WADMKK": "Takalar", "WADMPR": "Sulawesi Selatan", "WIADKC": null, "WIADKK": null, "WIADPR": null, "WIADKD": null, "UUPP": "Hasil Delineasi Batas Desa 2019", "LUAS": 2.69042196, "id_kab": "7305", "nama_kab": "Takalar"}}, {"type": "Feature", "geometry": {"type": "Polygon", "coordinates": [[[119.63663041600012, -5.430952901999945], [119.6646753330001, -5.478903700999979], [119.70072632200004, -5.49719227099996], [119.70471941700009, -5.542405205999955], [119.73164786000007, -5.563277218999929], [119.80385688100012, -5.555558266999981], [119.85928920800006, -5.448577790999934], [119.90814270100009, -5.420555739999941], [119.9395099940001, -5.381985670999939], [119.93757130000006, -5.355870180999943], [119.92869372400003, -5.341589382999928], [119.99756962000004, -5.227970653999932], [119.970729215, -5.139315899999929], [119.92246978000003, -5.132970273999945], [119.86420986700011, -5.091759198999966], [119.86977798700002, -5.11871036399998], [119.84391343100003, -5.183450205999975], [119.79924789900008, -5.212020023999969], [119.74877777800009, -5.18311111099996], [119.62038347400005, -5.159963818999927], [119.51856667000004, -5.165234624999925], [119.51561666700002, -5.189977777999957], [119.41459693800005, -5.195628596999939], [119.40652222200004, -5.232338888999948], [119.37650408000002, -5.292846296999926], [119.39445253600002, -5.310580239999979], [119.40055670000004, -5.382151843999964], [119.36542788000008, -5.422127291999971], [119.36572646200011, -5.422578370999929], [119.42094889200007, -5.411290129999941], [119.45689647000006, -5.372371068999939], [119.48144701100011, -5.311025952999955], [119.56961538200005, -5.292996391999964], [119.64612742700001, -5.399687072999939], [119.63663041600012, -5.430952901999945]]]}, "properties": {"OBJECTID": 40651, "NAMOBJ": "Barembeng", "FCODE": "BA03070040", "REMARK": null, "METADATA": "TASWIL1000020221227_DATA_BATAS_DESAKELURAHAN", "SRS_ID": "SRGI 2013", "KDBBPS": null, "KDCBPS": null, "KDCPUM": "73.06.01", "KDEBPS": null, "KDEPUM": "73.06.01.2006", "KDPBPS": null, "KDPKAB": "73.06", "KDPPUM": "73", "LUASWH": 0, "TIPADM": 1, "WADMKC": "Bontonompo", "WADMKD": "Barembeng", "WADMKK": "Gowa", "WADMPR": "Sulawesi Selatan", "WIADKC": null, "WIADKK": null, "WIADPR": null, "WIADKD": null, "UUPP": "Hasil Delineasi Batas Desa 2019", "LUAS": 3.79161573, "id_kab": "7306", "nama_kab": "Gowa"}}, {"type": "Feature", "geometry": {"type": "Polygon", "coordinates": [[[119.95557914200003, -5.354370424999956], [119.99300178600004, -5.32375185799998], [120.04463976000011, -5.345894107999925], [120.15319676500008, -5.301917426999978], [120.17833062200009, -5.312889470999949], [120.25803864400007, -5.287927536999973], [120.33438798200007, -5.287631655999974], [120.3079241160001, -5.211776703999931], [120.27096670500009, -5.142136300999937], [120.28927569000007, -5.11346692099994], [120.23572960800004, -5.08864039499997], [120.20752423200008, -5.10004924499998], [120.17985474400007, -5.069748076999929], [120.12500000600005, -5.048029318999966], [120.08426698100004, -5.074898455999971], [120.05705412900011, -5.126838853999971], [119.970729215, -5.139315899999929], [119.99756962000004, -5.227970653999932], [119.92869372400003, -5.341589382999928], [119.93757130000006, -5.355870180999943], [119.95557914200003, -5.354370424999956]]]}, "properties": {"OBJECTID": 40648, "NAMOBJ": "Barania", "FCODE": "BA03070040", "REMARK": null, "METADATA": "TASWIL1000020221227_DATA_BATAS_DESAKELURAHAN", "SRS_ID": "SRGI 2013", "KDBBPS": null, "KDCBPS": null, "KDCPUM": "73.07.01", "KDEBPS": null, "KDEPUM": "73.07.01.2007", "KDPBPS": null, "KDPKAB": "73.07", "KDPPUM": "73", "LUASWH": 0, "TIPADM": 1, "WADMKC": "Sinjai Barat", "WADMKD": "Barania", "WADMKK": "Sinjai", "WADMPR": "Sulawesi Selatan", "WIADKC": null, "WIADKK": null, "WIADPR": null, "WIADKD": null, "UUPP": "Hasil Delineasi Batas Desa 2019", "LUAS": 7.44211081, "id_kab": "7307", "nama_kab": "Sinjai"}}, {"type": "Feature", "geometry": {"type": "Polygon", "coordinates": [[[119.970729215, -5.139315899999929], [120.05705412900011, -5.126838853999971], [120.08426698100004, -5.074898455999971], [120.12500000600005, -5.048029318999966], [120.17985474400007, -5.069748076999929], [120.20752423200008, -5.10004924499998], [120.23572960800004, -5.08864039499997], [120.28927569000007, -5.11346692099994], [120.28787450400011, -5.040883794999957], [120.30623453300007, -5.002385464999975], [120.29245584600005, -4.923275272999945], [120.30625721500007, -4.867888749999963], [120.33662204400002, -4.840084350999973], [120.38350881500003, -4.83705684399996], [120.3855121040001, -4.768091055999946], [120.41107176000003, -4.693207164999933], [120.451571349, -4.657150835999971], [120.39933470000005, -4.605794818999925], [120.3768646630001, -4.512198541999965], [120.39686075000009, -4.469138766999947], [120.34750849300008, -4.425344233999965], [120.39050673300005, -4.347595805999958], [120.36566766800001, -4.299733993999951], [120.3664095790001, -4.223383372999933], [120.29293004800002, -4.243354667999938], [120.26383367900007, -4.272659179999948], [120.23076898400006, -4.240664687999981], [120.12511933000008, -4.225935053999933], [120.09443435300011, -4.242875764999951], [120.07257138900002, -4.285507499999937], [120.08930936000002, -4.32688245099996], [120.09505477000005, -4.39370176999995], [120.05991165900002, -4.408160749999979], [120.05765589500004, -4.49865798899998], [120.03432184400003, -4.525489746999938], [119.97754024100004, -4.539146803999927], [119.90567242500003, -4.516130929999974], [119.85421359000009, -4.540612413999952], [119.8084061190001, -4.537406787999942], [119.80041250400006, -4.592036686999961], [119.76633779800011, -4.615464843999973], [119.76031199600004, -4.68530637899994], [119.82571696800005, -4.717685221999943], [119.80268885300006, -4.762909689999958], [119.77336338400005, -4.75385571399994], [119.74901230700004, -4.797187727999926], [119.69624987000009, -4.787914868999962], [119.73957803300004, -4.803701366999974], [119.8069699560001, -4.80817910899998], [119.82073658000002, -4.764889455999935], [119.885125, -4.718472221999946], [119.96072212800004, -4.767147245999979], [119.9409474150001, -4.836418632999937], [119.95138860100008, -4.853218418999973], [119.89631859400004, -4.921061177999945], [119.88530687900004, -4.999419183999976], [119.84576579100008, -5.05501950699994], [119.86420986700011, -5.091759198999966], [119.92246978000003, -5.132970273999945], [119.970729215, -5.139315899999929]]]}, "properties": {"OBJECTID": 43113, "NAMOBJ": "Abbanuang", "FCODE": "BA03070040", "REMARK": null, "METADATA": "TASWIL1000020221227_DATA_BATAS_DESAKELURAHAN", "SRS_ID": "SRGI 2013", "KDBBPS": null, "KDCBPS": null, "KDCPUM": "73.08.16", "KDEBPS": null, "KDEPUM": "73.08.16.2013", "KDPBPS": "0", "KDPKAB": "73.08", "KDPPUM": "73", "LUASWH": 0, "TIPADM": 1, "WADMKC": "Awangpone", "WADMKD": "Abbanuang", "WADMKK": "Bone", "WADMPR": "Sulawesi Selatan", "WIADKC": null, "WIADKK": null, "WIADPR": null, "WIADKD": null, "UUPP": "Hasil Delineasi Batas Desa 2019", "LUAS": 9.38650241, "id_kab": "7308", "nama_kab": "Bone"}}, {"type": "Feature", "geometry": {"type": "Polygon", "coordinates": [[[119.51856667000004, -5.165234624999925], [119.62038347400005, -5.159963818999927], [119.74877777800009, -5.18311111099996], [119.79924789900008, -5.212020023999969], [119.84391343100003, -5.183450205999975], [119.86977798700002, -5.11871036399998], [119.86420986700011, -5.091759198999966], [119.84576579100008, -5.05501950699994], [119.88530687900004, -4.999419183999976], [119.89631859400004, -4.921061177999945], [119.95138860100008, -4.853218418999973], [119.9409474150001, -4.836418632999937], [119.96072212800004, -4.767147245999979], [119.885125, -4.718472221999946], [119.82073658000002, -4.764889455999935], [119.8069699560001, -4.80817910899998], [119.7962737900001, -4.864830939999933], [119.8019860060001, -4.91676902599994], [119.77465566700005, -4.943109168999968], [119.73911357500003, -4.931369007999933], [119.68857811100008, -4.951571514999955], [119.64537446100007, -4.921084276999977], [119.51906779500007, -4.881998340999928], [119.52454584300006, -4.924140912999974], [119.47943684100005, -4.988828507999926], [119.47902691700006, -5.059852757999977], [119.52933006700005, -5.064741277999929], [119.5393845970001, -5.12234700099998], [119.51856667000004, -5.165234624999925]]]}, "properties": {"OBJECTID": 40661, "NAMOBJ": "Baruga", "FCODE": "BA03070040", "REMARK": null, "METADATA": "TASWIL1000020221227_DATA_BATAS_DESAKELURAHAN", "SRS_ID": "SRGI 2013", "KDBBPS": null, "KDCBPS": null, "KDCPUM": "73.09.03", "KDEBPS": null, "KDEPUM": "73.09.03.2008", "KDPBPS": null, "KDPKAB": "73.09", "KDPPUM": "73", "LUASWH": 0, "TIPADM": 1, "WADMKC": "Bantimurung", "WADMKD": "Baruga", "WADMKK": "Maros", "WADMPR": "Sulawesi Selatan", "WIADKC": null, "WIADKK": null, "WIADPR": null, "WIADKD": null, "UUPP": "Hasil Delineasi Batas Desa 2019", "LUAS": 12.44033769, "id_kab": "7309", "nama_kab": "Maros"}}, {"type": "Feature", "geometry": {"type": "Polygon", "coordinates": [[[119.59335131500006, -4.557112185999927], [119.54595562200006, -4.653577945999928], [119.52519464800002, -4.675525870999934], [119.49137629000006, -4.765594765999936], [119.49731643400003, -4.831678067999974], [119.51906779500007, -4.881998340999928], [119.64537446100007, -4.921084276999977], [119.68857811100008, -4.951571514999955], [119.73911357500003, -4.931369007999933], [119.77465566700005, -4.943109168999968], [119.8019860060001, -4.91676902599994], [119.7962737900001, -4.864830939999933], [119.8069699560001, -4.80817910899998], [119.73957803300004, -4.803701366999974], [119.69624987000009, -4.787914868999962], [119.69160999700011, -4.720810272999927], [119.65458061600009, -4.715939640999977], [119.66677436600003, -4.654188718999933], [119.63516944100002, -4.617409886999951], [119.61889784400012, -4.565669459999981], [119.59335131500006, -4.557112185999927]]]}, "properties": {"OBJECTID": 18747, "NAMOBJ": "Kapoposan Bali", "FCODE": "BA03070040", "REMARK": null, "METADATA": "TASWIL1000020221227_DATA_BATAS_DESAKELURAHAN", "SRS_ID": "SRGI 2013", "KDBBPS": null, "KDCBPS": null, "KDCPUM": "73.10.01", "KDEBPS": null, "KDEPUM": "73.10.01.2008", "KDPBPS": null, "KDPKAB": "73.10", "KDPPUM": "73", "LUASWH": 0, "TIPADM": 1, "WADMKC": "Liukang Tangaya", "WADMKD": "Kapoposan Bali", "WADMKK": "Pangkajene Kepulauan", "WADMPR": "Sulawesi Selatan", "WIADKC": null, "WIADKK": null, "WIADPR": null, "WIADKD": null, "UUPP": "Hasil Delineasi Batas Desa 2019", "LUAS": 2.27109544, "id_kab": "7310", "nama_kab": "Pangkajene Kepulauan"}}, {"type": "Feature", "geometry": {"type": "Polygon", "coordinates": [[[119.69624987000009, -4.787914868999962], [119.74901230700004, -4.797187727999926], [119.77336338400005, -4.75385571399994], [119.80268885300006, -4.762909689999958], [119.82571696800005, -4.717685221999943], [119.76031199600004, -4.68530637899994], [119.76633779800011, -4.615464843999973], [119.80041250400006, -4.592036686999961], [119.8084061190001, -4.537406787999942], [119.79132960700008, -4.495523830999957], [119.75853391900012, -4.480307054999969], [119.75395573900005, -4.284037239999975], [119.71600356200008, -4.250631111999951], [119.75062333300002, -4.126748332999966], [119.72112611200009, -4.078230832999964], [119.6201204670001, -4.067031252999925], [119.60533719300008, -4.103077738999957], [119.63799145000007, -4.173369831999935], [119.59579910100001, -4.248347770999942], [119.63595846900012, -4.317520141999978], [119.60946157100011, -4.382154381999953], [119.59950688100002, -4.473928978999936], [119.58105776800005, -4.530652821999979], [119.59335131500006, -4.557112185999927], [119.61889784400012, -4.565669459999981], [119.63516944100002, -4.617409886999951], [119.66677436600003, -4.654188718999933], [119.65458061600009, -4.715939640999977], [119.69160999700011, -4.720810272999927], [119.69624987000009, -4.787914868999962]]]}, "properties": {"OBJECTID": 40695, "NAMOBJ": "Batupute", "FCODE": "BA03070040", "REMARK": null, "METADATA": "TASWIL1000020221227_DATA_BATAS_DESAKELURAHAN", "SRS_ID": "SRGI 2013", "KDBBPS": null, "KDCBPS": null, "KDCPUM": "73.11.04", "KDEBPS": null, "KDEPUM": "73.11.04.2007", "KDPBPS": null, "KDPKAB": "73.11", "KDPPUM": "73", "LUASWH": 0, "TIPADM": 1, "WADMKC": "Soppeng Riaja", "WADMKD": "Batupute", "WADMKK": "Barru", "WADMPR": "Sulawesi Selatan", "WIADKC": null, "WIADKK": null, "WIADPR": null, "WIADKD": null, "UUPP": "Hasil Delineasi Batas Desa 2019", "LUAS": 5.29836726, "id_kab": "7311", "nama_kab": "Barru"}}, {"type": "Feature", "geometry": {"type": "Polygon", "coordinates": [[[119.8084061190001, -4.537406787999942], [119.85421359000009, -4.540612413999952], [119.90567242500003, -4.516130929999974], [119.97754024100004, -4.539146803999927], [120.03432184400003, -4.525489746999938], [120.05765589500004, -4.49865798899998], [120.05991165900002, -4.408160749999979], [120.09505477000005, -4.39370176999995], [120.08930936000002, -4.32688245099996], [120.07257138900002, -4.285507499999937], [120.04077302600001, -4.268500705999941], [120.0409174780001, -4.268340203999969], [120.0018486250001, -4.264732934999927], [120.00131910400012, -4.26466512899998], [119.9587123870001, -4.267760361999933], [119.95846325600007, -4.267268196999964], [119.93778731900011, -4.230299274999936], [119.93793483600007, -4.229596172999948], [119.94994360300007, -4.186988092999968], [119.94996063000008, -4.186771600999975], [119.94778598800008, -4.153796898999929], [119.94898943800001, -4.140006419999963], [119.8943944780001, -4.108995526999934], [119.84873058000005, -4.098567598999978], [119.80205687500006, -4.129663887999925], [119.75062333300002, -4.126748332999966], [119.71600356200008, -4.250631111999951], [119.75395573900005, -4.284037239999975], [119.75853391900012, -4.480307054999969], [119.79132960700008, -4.495523830999957], [119.8084061190001, -4.537406787999942]]]}, "properties": {"OBJECTID": 40653, "NAMOBJ": "Baringeng", "FCODE": "BA03070040", "REMARK": null, "METADATA": "TASWIL1000020221227_DATA_BATAS_DESAKELURAHAN", "SRS_ID": "SRGI 2013", "KDBBPS": null, "KDCBPS": null, "KDCPUM": "73.12.03", "KDEBPS": null, "KDEPUM": "73.12.03.2007", "KDPBPS": null, "KDPKAB": "73.12", "KDPPUM": "73", "LUASWH": 0, "TIPADM": 1, "WADMKC": "Lilirilau", "WADMKD": "Baringeng", "WADMKK": "Soppeng", "WADMPR": "Sulawesi Selatan", "WIADKC": null, "WIADKK": null, "WIADPR": null, "WIADKD": null, "UUPP": "Hasil Delineasi Batas Desa 2019", "LUAS": 25.25791533, "id_kab": "7312", "nama_kab": "Soppeng"}}, {"type": "Feature", "geometry": {"type": "Polygon", "coordinates": [[[119.9587123870001, -4.267760361999933], [120.00131910400012, -4.26466512899998], [120.0018486250001, -4.264732934999927], [120.0409174780001, -4.268340203999969], [120.04077302600001, -4.268500705999941], [120.07257138900002, -4.285507499999937], [120.09443435300011, -4.242875764999951], [120.12511933000008, -4.225935053999933], [120.23076898400006, -4.240664687999981], [120.26383367900007, -4.272659179999948], [120.29293004800002, -4.243354667999938], [120.3664095790001, -4.223383372999933], [120.3811215500001, -4.175154766999981], [120.34620645900009, -4.132160626999962], [120.33790874700003, -4.092271086999972], [120.36098638600004, -4.021585590999962], [120.33670211200001, -3.938634986999944], [120.34414398700005, -3.892730646999951], [120.40032081100003, -3.784765686999947], [120.4391213450001, -3.746238486999971], [120.438225783, -3.69021523999993], [120.41201690700007, -3.663524299999949], [120.32094341200002, -3.646752073999949], [120.33880701800001, -3.677929863999964], [120.2993499160001, -3.705227019999938], [120.19090784800005, -3.644475604999968], [120.15659800700007, -3.642158494999933], [120.14325639900005, -3.683027102999972], [120.21053033600003, -3.72340870599993], [120.19183930500003, -3.772790193999981], [120.15344399800006, -3.765155546999949], [120.12500000800003, -3.812835032999942], [120.08618210700001, -3.792478433999975], [120.07954975900009, -3.847329982999952], [120.04567388100008, -3.870787599999971], [120.033846143, -3.915470351999943], [119.99999999700003, -3.934487871999977], [119.91069811400007, -3.934539530999928], [119.88469667800007, -4.012466092999944], [119.8943944780001, -4.108995526999934], [119.94898943800001, -4.140006419999963], [119.94778598800008, -4.153796898999929], [119.94996063000008, -4.186771600999975], [119.94994360300007, -4.186988092999968], [119.93793483600007, -4.229596172999948], [119.93778731900011, -4.230299274999936], [119.95846325600007, -4.267268196999964], [119.9587123870001, -4.267760361999933]]]}, "properties": {"OBJECTID": 40646, "NAMOBJ": "Barangmamase", "FCODE": "BA03070040", "REMARK": null, "METADATA": "TASWIL1000020221227_DATA_BATAS_DESAKELURAHAN", "SRS_ID": "SRGI 2013", "KDBBPS": null, "KDCBPS": null, "KDCPUM": "73.13.04", "KDEBPS": null, "KDEPUM": "73.13.04.2006", "KDPBPS": null, "KDPKAB": "73.13", "KDPPUM": "73", "LUASWH": 0, "TIPADM": 1, "WADMKC": "Sajoanging", "WADMKD": "Barangmamase", "WADMKK": "Wajo", "WADMPR": "Sulawesi Selatan", "WIADKC": null, "WIADKK": null, "WIADPR": null, "WIADKD": null, "UUPP": "Hasil Delineasi Batas Desa 2019", "LUAS": 30.18359967, "id_kab": "7313", "nama_kab": "Wajo"}}, {"type": "Feature", "geometry": {"type": "Polygon", "coordinates": [[[119.75062333300002, -4.126748332999966], [119.80205687500006, -4.129663887999925], [119.84873058000005, -4.098567598999978], [119.8943944780001, -4.108995526999934], [119.88469667800007, -4.012466092999944], [119.91069811400007, -3.934539530999928], [119.99999999700003, -3.934487871999977], [120.033846143, -3.915470351999943], [120.04567388100008, -3.870787599999971], [120.07954975900009, -3.847329982999952], [120.08618210700001, -3.792478433999975], [120.12500000800003, -3.812835032999942], [120.15344399800006, -3.765155546999949], [120.19183930500003, -3.772790193999981], [120.21053033600003, -3.72340870599993], [120.14325639900005, -3.683027102999972], [120.15659800700007, -3.642158494999933], [120.19090784800005, -3.644475604999968], [120.2993499160001, -3.705227019999938], [120.33880701800001, -3.677929863999964], [120.32094341200002, -3.646752073999949], [120.23404243300001, -3.58449686299997], [120.2006239850001, -3.582842404999951], [120.17736897800012, -3.508043422999947], [120.13932441200006, -3.522922937999965], [120.09749264700008, -3.488019368999971], [120.0370882420001, -3.560457055999962], [119.99285103000011, -3.657081891999951], [119.92713203900007, -3.678876316999947], [119.94042019300002, -3.761436716999981], [119.96933764200003, -3.788988321999966], [119.9067222220001, -3.822694443999978], [119.86050354300005, -3.811262264999925], [119.80266666700004, -3.733305554999959], [119.77801924300002, -3.737794292999979], [119.71699329600006, -3.90816783799994], [119.66388543100004, -3.960589832999972], [119.67571277200011, -4.006424509999931], [119.7184796360001, -4.045546216999981], [119.72112611200009, -4.078230832999964], [119.75062333300002, -4.126748332999966]]]}, "properties": {"OBJECTID": 40726, "NAMOBJ": "Betao", "FCODE": "BA03070040", "REMARK": null, "METADATA": "TASWIL1000020221227_DATA_BATAS_DESAKELURAHAN", "SRS_ID": "SRGI 2013", "KDBBPS": null, "KDCBPS": null, "KDCPUM": "73.14.10", "KDEBPS": null, "KDEPUM": "73.14.10.2006", "KDPBPS": null, "KDPKAB": "73.14", "KDPPUM": "73", "LUASWH": 0, "TIPADM": 1, "WADMKC": "Pitu Riawa", "WADMKD": "Betao", "WADMKK": "Sidenreng Rappang", "WADMPR": "Sulawesi Selatan", "WIADKC": null, "WIADKK": null, "WIADPR": null, "WIADKD": null, "UUPP": "Hasil Delineasi Batas Desa 2019", "LUAS": 37.64712622, "id_kab": "7314", "nama_kab": "Sidenreng Rappang"}}, {"type": "Feature", "geometry": {"type": "Polygon", "coordinates": [[[119.47397877700007, -3.501811785999962], [119.51342396900009, -3.559755717999963], [119.51086895600008, -3.595221096999978], [119.4588450870001, -3.643839533999937], [119.45262969600003, -3.713395249999962], [119.48141634900003, -3.751040633999935], [119.53826768400006, -3.90195775799998], [119.60831618400005, -3.982349438999961], [119.63474334500006, -3.98252107299993], [119.66388543100004, -3.960589832999972], [119.71699329600006, -3.90816783799994], [119.77801924300002, -3.737794292999979], [119.80266666700004, -3.733305554999959], [119.76368009400005, -3.718078662999972], [119.76497885700007, -3.686430123999969], [119.69262348900008, -3.500725055999965], [119.69692229100008, -3.386650655999972], [119.66724304000002, -3.36810156699994], [119.61561462600002, -3.286834714999941], [119.55804630600005, -3.269596658999944], [119.48166649900008, -3.291628595999953], [119.43768853000006, -3.285614619999933], [119.43142277800007, -3.339124721999951], [119.46555227400006, -3.377274733999968], [119.46911839900008, -3.433295920999967], [119.49187838500006, -3.474055703999966], [119.47397877700007, -3.501811785999962]]]}, "properties": {"OBJECTID": 40645, "NAMOBJ": "Barang Palie", "FCODE": "BA03070040", "REMARK": null, "METADATA": "TASWIL1000020221227_DATA_BATAS_DESAKELURAHAN", "SRS_ID": "SRGI 2013", "KDBBPS": null, "KDCBPS": null, "KDCPUM": "73.15.10", "KDEBPS": null, "KDEPUM": "73.15.10.2005", "KDPBPS": null, "KDPKAB": "73.15", "KDPPUM": "73", "LUASWH": 0, "TIPADM": 1, "WADMKC": "Lanrisang", "WADMKD": "Barang Palie", "WADMKK": "Pinrang", "WADMPR": "Sulawesi Selatan", "WIADKC": null, "WIADKK": null, "WIADPR": null, "WIADKD": null, "UUPP": "Hasil Sinkronisasi Data Pemerintah Daerah Tahun 2019", "LUAS": 7.84512209, "id_kab": "7315", "nama_kab": "Pinrang"}}, {"type": "Feature", "geometry": {"type": "Polygon", "coordinates": [[[119.80266666700004, -3.733305554999959], [119.86050354300005, -3.811262264999925], [119.9067222220001, -3.822694443999978], [119.96933764200003, -3.788988321999966], [119.94042019300002, -3.761436716999981], [119.92713203900007, -3.678876316999947], [119.99285103000011, -3.657081891999951], [120.0370882420001, -3.560457055999962], [120.09749264700008, -3.488019368999971], [120.04141666700002, -3.368305555999939], [119.9957199800001, -3.30237238999996], [119.93363461100012, -3.290253376999942], [119.92339621500003, -3.266147977999935], [119.82900046700001, -3.265293652999958], [119.81507723700008, -3.245493581999938], [119.72927106200007, -3.29334881699998], [119.72496884400005, -3.363272542999937], [119.69692229100008, -3.386650655999972], [119.69262348900008, -3.500725055999965], [119.76497885700007, -3.686430123999969], [119.76368009400005, -3.718078662999972], [119.80266666700004, -3.733305554999959]]]}, "properties": {"OBJECTID": 40654, "NAMOBJ": "Baringin", "FCODE": "BA03070040", "REMARK": null, "METADATA": "TASWIL1000020221227_DATA_BATAS_DESAKELURAHAN", "SRS_ID": "SRGI 2013", "KDBBPS": null, "KDCBPS": null, "KDCPUM": "73.16.01", "KDEBPS": null, "KDEPUM": "73.16.01.2014", "KDPBPS": null, "KDPKAB": "73.16", "KDPPUM": "73", "LUASWH": 0, "TIPADM": 1, "WADMKC": "Maiwa", "WADMKD": "Baringin", "WADMKK": "Enrekang", "WADMPR": "Sulawesi Selatan", "WIADKC": null, "WIADKK": null, "WIADPR": null, "WIADKD": null, "UUPP": "Hasil Delineasi Batas Desa 2019", "LUAS": 20.543923, "id_kab": "7316", "nama_kab": "Enrekang"}}, {"type": "Feature", "geometry": {"type": "MultiPolygon", "coordinates": [[[[120.41201690700007, -3.663524299999949], [120.41753849200006, -3.573695413999928], [120.3797874930001, -3.499017742999968], [120.40452882700004, -3.431949446999965], [120.40400584100007, -3.341701719999946], [120.38234522700009, -3.20262865899997], [120.25641756700009, -3.161323357999947], [120.2622851000001, -3.080760339999927], [120.22954252600005, -3.043051053999932], [120.12350087200002, -3.069484202999945], [120.085552, -3.030781], [120.02514339000004, -3.055256964999955], [120.00885297500008, -3.169222206999962], [119.98706666700002, -3.182704721999926], [119.98234212700004, -3.249771643999964], [120.02257960700001, -3.279215816999965], [120.04141666700002, -3.368305555999939], [120.09749264700008, -3.488019368999971], [120.13932441200006, -3.522922937999965], [120.17736897800012, -3.508043422999947], [120.2006239850001, -3.582842404999951], [120.23404243300001, -3.58449686299997], [120.32094341200002, -3.646752073999949], [120.41201690700007, -3.663524299999949]]], [[[120.04953325500003, -2.952455200999964], [120.09287409900003, -2.919172877999927], [120.18014591600001, -2.883273220999968], [120.21814660000007, -2.907479997999928], [120.21256475400003, -2.956356461999974], [120.255815428, -2.946352243999968], [120.2873179500001, -2.909697188999928], [120.25042036200011, -2.823571064999953], [120.13418122700011, -2.703680687999963], [120.10544122500005, -2.663866522999967], [120.08235537900009, -2.695163781999952], [119.97767794600009, -2.696173346999956], [119.90677122500006, -2.722222724999938], [119.88593241, -2.763079346999973], [119.94145873700006, -2.778797184999974], [119.9885978640001, -2.845366598999931], [120.01709050800002, -2.913445085999967], [120.04953325500003, -2.952455200999964]]]]}, "properties": {"OBJECTID": 40657, "NAMOBJ": "Barowa", "FCODE": "BA03070040", "REMARK": null, "METADATA": "TASWIL1000020221227_DATA_BATAS_DESAKELURAHAN", "SRS_ID": "SRGI 2013", "KDBBPS": null, "KDCBPS": null, "KDCPUM": "73.17.08", "KDEBPS": null, "KDEPUM": "73.17.08.2002", "KDPBPS": null, "KDPKAB": "73.17", "KDPPUM": "73", "LUASWH": 0, "TIPADM": 1, "WADMKC": "Bua", "WADMKD": "Barowa", "WADMKK": "Luwu", "WADMPR": "Sulawesi Selatan", "WIADKC": null, "WIADKK": null, "WIADPR": null, "WIADKD": null, "UUPP": "Hasil Delineasi Batas Desa 2019", "LUAS": 2.56851004, "id_kab": "7317", "nama_kab": "Luwu"}}, {"type": "Feature", "geometry": {"type": "Polygon", "coordinates": [[[120.04141666700002, -3.368305555999939], [120.02257960700001, -3.279215816999965], [119.98234212700004, -3.249771643999964], [119.98706666700002, -3.182704721999926], [119.95987467700002, -3.103452682999944], [119.9359237540001, -3.067488581999953], [119.8949785960001, -3.045006200999978], [119.85329286000001, -3.05165732599994], [119.80789349600002, -2.95952600499993], [119.77426167600004, -2.939510278999933], [119.71858983100003, -2.95425625699994], [119.67562978600006, -2.918765547999953], [119.6916101710001, -2.823142231999952], [119.68171638900003, -2.756215277999956], [119.58376444400005, -2.74794916299993], [119.56782196600011, -2.798372085999972], [119.57924994000007, -2.823265352999954], [119.54995969800007, -2.897578893999935], [119.57659842700002, -2.950223727999969], [119.5646065090001, -2.994338176999975], [119.59524624800008, -3.063315253999974], [119.63251924600002, -3.109787291999965], [119.53612355700011, -3.139343198999939], [119.51365826500012, -3.172562669999934], [119.47031353600005, -3.190894219999961], [119.40962016800006, -3.183338929999934], [119.38700532200005, -3.217228422999938], [119.43768853000006, -3.285614619999933], [119.48166649900008, -3.291628595999953], [119.55804630600005, -3.269596658999944], [119.61561462600002, -3.286834714999941], [119.66724304000002, -3.36810156699994], [119.69692229100008, -3.386650655999972], [119.72496884400005, -3.363272542999937], [119.72927106200007, -3.29334881699998], [119.81507723700008, -3.245493581999938], [119.82900046700001, -3.265293652999958], [119.92339621500003, -3.266147977999935], [119.93363461100012, -3.290253376999942], [119.9957199800001, -3.30237238999996], [120.04141666700002, -3.368305555999939]]]}, "properties": {"OBJECTID": 40687, "NAMOBJ": "Batu Tiakka", "FCODE": "BA03070040", "REMARK": null, "METADATA": "TASWIL1000020221227_DATA_BATAS_DESAKELURAHAN", "SRS_ID": "SRGI 2013", "KDBBPS": null, "KDCBPS": null, "KDCPUM": "73.18.01", "KDEBPS": null, "KDEPUM": "73.18.01.2017", "KDPBPS": null, "KDPKAB": "73.18", "KDPPUM": "73", "LUASWH": 0, "TIPADM": 1, "WADMKC": "Saluputi", "WADMKD": "Batu Tiakka", "WADMKK": "Tana Toraja", "WADMPR": "Sulawesi Selatan", "WIADKC": null, "WIADKK": null, "WIADPR": null, "WIADKD": null, "UUPP": "Hasil Delineasi Batas Desa 2019", "LUAS": 3.67280469, "id_kab": "7318", "nama_kab": "Tana Toraja"}}, {"type": "Feature", "geometry": {"type": "Polygon", "coordinates": [[[120.2873179500001, -2.909697188999928], [120.34604242600005, -2.869973664999975], [120.4468508120001, -2.827140763999978], [120.49027121600011, -2.782930378999936], [120.52914685000007, -2.764964733999932], [120.57327458500004, -2.704707461999931], [120.65591963200006, -2.66722247499996], [120.57392799900003, -2.462306122999962], [120.54038663900008, -2.427538271999936], [120.52019934100008, -2.378860328999963], [120.53134703500007, -2.354665272999966], [120.50869886400005, -2.300547969999968], [120.47018521600012, -2.248897613999929], [120.52029039700005, -2.14660164999998], [120.5133641220001, -2.110168449999946], [120.4803876410001, -2.082817335999948], [120.42009198000005, -1.978953451999928], [120.38777462500002, -1.975119761999963], [120.32912443700002, -1.996863098999938], [120.32558333300005, -2.040527777999955], [120.28977388300007, -2.038720711999929], [120.23292808100007, -1.986988871999927], [120.18033410800001, -1.966230881999934], [120.12907051600007, -1.994619186999955], [120.094516956, -1.967456632999927], [120.04456591200005, -1.97213624099993], [119.99658780400011, -1.95762286799993], [119.9707738520001, -1.997280968999974], [119.90086172400004, -2.05536030199994], [119.8703279240001, -2.018475181999975], [119.81771580700001, -2.059311524999941], [119.80373507000002, -2.112175089999937], [119.711, -2.1425], [119.74693409200006, -2.222126720999938], [119.67750464300002, -2.279538333999938], [119.68774904700001, -2.369782770999961], [119.72445146200005, -2.467004295999971], [119.71265276600002, -2.519893199999956], [119.74578075300008, -2.535888431999979], [119.76038611100012, -2.586633332999952], [119.84932508300005, -2.634709136999959], [119.83792612000002, -2.667214514999955], [119.88593241, -2.763079346999973], [119.90677122500006, -2.722222724999938], [119.97767794600009, -2.696173346999956], [120.08235537900009, -2.695163781999952], [120.10544122500005, -2.663866522999967], [120.13418122700011, -2.703680687999963], [120.25042036200011, -2.823571064999953], [120.2873179500001, -2.909697188999928]]]}, "properties": {"OBJECTID": 40676, "NAMOBJ": "Batang Tongka", "FCODE": "BA03070040", "REMARK": null, "METADATA": "TASWIL1000020221227_DATA_BATAS_DESAKELURAHAN", "SRS_ID": "SRGI 2013", "KDBBPS": null, "KDCBPS": null, "KDCPUM": "73.22.02", "KDEBPS": null, "KDEPUM": "73.22.02.2011", "KDPBPS": null, "KDPKAB": "73.22", "KDPPUM": "73", "LUASWH": 0, "TIPADM": 1, "WADMKC": "Bone Bone", "WADMKD": "Batang Tongka", "WADMKK": "Luwu Utara", "WADMPR": "Sulawesi Selatan", "WIADKC": null, "WIADKK": null, "WIADPR": null, "WIADKD": null, "UUPP": "Hasil Sinkronisasi Data Pemerintah Daerah Tahun 2019", "LUAS": 10.92937093, "id_kab": "7322", "nama_kab": "Luwu Utara"}}, {"type": "Feature", "geometry": {"type": "Polygon", "coordinates": [[[121.670222222, -2.90045], [121.67385929700004, -2.838230630999931], [121.7067729360001, -2.807263467999974], [121.71533989600005, -2.753339467999979], [121.77345629500007, -2.682923420999941], [121.78414063100001, -2.641680708999957], [121.72011470500001, -2.60376948399994], [121.673970789, -2.541616743999953], [121.6298918230001, -2.50557146999995], [121.58528694900008, -2.528123986999958], [121.57032731600009, -2.49124825399997], [121.44213888900003, -2.405037499999935], [121.39152853500002, -2.411014849999958], [121.28434717000005, -2.381291920999956], [121.253963569, -2.402344461999974], [121.22792619100005, -2.368372755999928], [121.17997447700009, -2.375922536999951], [121.13388737600008, -2.407854655999927], [121.08515453300004, -2.373296076999964], [121.10762500500005, -2.280768012999943], [121.04879843200001, -2.265302682999959], [120.993520052, -2.275142003999974], [120.9568290950001, -2.254411822999941], [120.88535615800004, -2.266728035999961], [120.83774000500011, -2.218592002999969], [120.78133415500008, -2.213945978999959], [120.74316558500004, -2.241863645999956], [120.72343067200006, -2.211003116999962], [120.682257907, -2.192373761999932], [120.63279099500005, -2.109899858999938], [120.60346071300012, -2.098681274999933], [120.55384324900001, -2.023973336999973], [120.52397335100011, -2.032039338999937], [120.5292193040001, -2.083729006999931], [120.5133641220001, -2.110168449999946], [120.52029039700005, -2.14660164999998], [120.47018521600012, -2.248897613999929], [120.50869886400005, -2.300547969999968], [120.53134703500007, -2.354665272999966], [120.52019934100008, -2.378860328999963], [120.54038663900008, -2.427538271999936], [120.57392799900003, -2.462306122999962], [120.65591963200006, -2.66722247499996], [120.66629908800007, -2.651541671999951], [120.74989498200011, -2.622360792999928], [120.81556619300011, -2.618980370999964], [120.83982841300008, -2.649544081999977], [120.89877496800011, -2.644797891999929], [121.03782511000009, -2.693905714999971], [121.09504950500002, -2.722917634999931], [121.03569656600007, -2.776465902999973], [120.9876198280001, -2.840910798999971], [121.01019435700005, -2.866442846999973], [120.98990406200005, -2.839592167999967], [121.034110198, -2.790874414999962], [121.08245986100007, -2.773288753999964], [121.15341467000007, -2.813786184999969], [121.34714, -2.984546], [121.36121816600007, -2.98757031699995], [121.3901679600001, -3.01484303999996], [121.46155592000002, -3.011399204999975], [121.50023100800001, -2.943695942999966], [121.63430282500008, -2.893583358999933], [121.670222222, -2.90045]]]}, "properties": {"OBJECTID": 40662, "NAMOBJ": "Baruga", "FCODE": "BA03070040", "REMARK": null, "METADATA": "TASWIL1000020221227_DATA_BATAS_DESAKELURAHAN", "SRS_ID": "SRGI 2013", "KDBBPS": null, "KDCBPS": null, "KDCPUM": "73.24.03", "KDEBPS": null, "KDEPUM": "73.24.03.2007", "KDPBPS": null, "KDPKAB": "73.24", "KDPPUM": "73", "LUASWH": 0, "TIPADM": 1, "WADMKC": "Towuti", "WADMKD": "Baruga", "WADMKK": "Luwu Timur", "WADMPR": "Sulawesi Selatan", "WIADKC": null, "WIADKK": null, "WIADPR": null, "WIADKD": null, "UUPP": "Hasil Delineasi Batas Desa 2019", "LUAS": 12.14382207, "id_kab": "7324", "nama_kab": "Luwu Timur"}}, {"type": "Feature", "geometry": {"type": "Polygon", "coordinates": [[[119.98706666700002, -3.182704721999926], [120.00885297500008, -3.169222206999962], [120.02514339000004, -3.055256964999955], [120.085552, -3.030781], [120.05104481900003, -2.983460830999945], [120.04953325500003, -2.952455200999964], [120.01709050800002, -2.913445085999967], [119.9885978640001, -2.845366598999931], [119.94145873700006, -2.778797184999974], [119.88593241, -2.763079346999973], [119.83792612000002, -2.667214514999955], [119.84932508300005, -2.634709136999959], [119.76038611100012, -2.586633332999952], [119.74397919600005, -2.610620562999941], [119.75507592400004, -2.675318639999944], [119.74781996700005, -2.714385318999973], [119.68171638900003, -2.756215277999956], [119.6916101710001, -2.823142231999952], [119.67562978600006, -2.918765547999953], [119.71858983100003, -2.95425625699994], [119.77426167600004, -2.939510278999933], [119.80789349600002, -2.95952600499993], [119.85329286000001, -3.05165732599994], [119.8949785960001, -3.045006200999978], [119.9359237540001, -3.067488581999953], [119.95987467700002, -3.103452682999944], [119.98706666700002, -3.182704721999926]]]}, "properties": {"OBJECTID": 42940, "NAMOBJ": "Rantebua Sanggalangi'", "FCODE": "BA03070040", "REMARK": null, "METADATA": "TASWIL1000020221227_DATA_BATAS_DESAKELURAHAN", "SRS_ID": "SRGI 2013", "KDBBPS": null, "KDCBPS": null, "KDCPUM": "73.26.18", "KDEBPS": null, "KDEPUM": "73.26.18.2007", "KDPBPS": null, "KDPKAB": "73.26", "KDPPUM": "73", "LUASWH": 0, "TIPADM": 1, "WADMKC": "Rantebua", "WADMKD": "Rantebua Sanggalangi'", "WADMKK": "Toraja Utara", "WADMPR": "Sulawesi Selatan", "WIADKC": null, "WIADKK": null, "WIADPR": null, "WIADKD": null, "UUPP": "Kesepakatan Teknis Batas Wilayah Administrasi Desa/Kelurahan Tahun 2021", "LUAS": 25.57929488, "id_kab": "7326", "nama_kab": "Toraja Utara"}}, {"type": "Feature", "geometry": {"type": "Polygon", "coordinates": [[[119.40652222200004, -5.232338888999948], [119.41459693800005, -5.195628596999939], [119.51561666700002, -5.189977777999957], [119.51856667000004, -5.165234624999925], [119.5393845970001, -5.12234700099998], [119.52933006700005, -5.064741277999929], [119.47902691700006, -5.059852757999977], [119.44713132200002, -5.10092685199993], [119.41020661200002, -5.112686998999948], [119.38616268400006, -5.158002873999976], [119.38379485500002, -5.21050298199998], [119.40652222200004, -5.232338888999948]]]}, "properties": {"OBJECTID": 41154, "NAMOBJ": "Antang", "FCODE": "BA03070040", "REMARK": null, "METADATA": "TASWIL1000020221227_DATA_BATAS_DESAKELURAHAN", "SRS_ID": "SRGI 2013", "KDBBPS": null, "KDCBPS": null, "KDCPUM": "73.71.12", "KDEBPS": null, "KDEPUM": "73.71.12.1004", "KDPBPS": null, "KDPKAB": "73.71", "KDPPUM": "73", "LUASWH": 0, "TIPADM": 2, "WADMKC": "Manggala", "WADMKD": "Antang", "WADMKK": "Kota Makassar", "WADMPR": "Sulawesi Selatan", "WIADKC": null, "WIADKK": null, "WIADPR": null, "WIADKD": null, "UUPP": "Hasil Sinkronisasi Data Pemerintah Daerah Tahun 2019", "LUAS": 1.67832883, "id_kab": "7371", "nama_kab": "Kota Makassar"}}, {"type": "Feature", "geometry": {"type": "Polygon", "coordinates": [[[120.085552, -3.030781], [120.12350087200002, -3.069484202999945], [120.22954252600005, -3.043051053999932], [120.21256475400003, -2.956356461999974], [120.21814660000007, -2.907479997999928], [120.18014591600001, -2.883273220999968], [120.09287409900003, -2.919172877999927], [120.04953325500003, -2.952455200999964], [120.05104481900003, -2.983460830999945], [120.085552, -3.030781]]]}, "properties": {"OBJECTID": 42668, "NAMOBJ": "Purangi", "FCODE": "BA03070040", "REMARK": null, "METADATA": "TASWIL1000020221227_DATA_BATAS_DESAKELURAHAN", "SRS_ID": "SRGI 2013", "KDBBPS": null, "KDCBPS": null, "KDCPUM": "73.73.07", "KDEBPS": null, "KDEPUM": "73.73.07.1002", "KDPBPS": null, "KDPKAB": "73.73", "KDPPUM": "73", "LUASWH": 0, "TIPADM": 2, "WADMKC": "Sendana", "WADMKD": "Purangi", "WADMKK": "Kota Palopo", "WADMPR": "Sulawesi Selatan", "WIADKC": null, "WIADKK": null, "WIADPR": null, "WIADKD": null, "UUPP": "Kesepakatan Teknis Batas Wilayah Administrasi Desa/Kelurahan Tahun 2021", "LUAS": 5.26590134, "id_kab": "7373", "nama_kab": "Kota Palopo"}}, {"type": "Feature", "geometry": {"type": "Polygon", "coordinates": [[[119.6201204670001, -4.067031252999925], [119.72112611200009, -4.078230832999964], [119.7184796360001, -4.045546216999981], [119.67571277200011, -4.006424509999931], [119.66388543100004, -3.960589832999972], [119.63474334500006, -3.98252107299993], [119.6201204670001, -4.067031252999925]]]}, "properties": {"OBJECTID": 41291, "NAMOBJ": "Bukit Harapan", "FCODE": "BA03070040", "REMARK": "Pemerintah Kota Parepare, Tahun 2010", "METADATA": "TASWIL1000020221227_DATA_BATAS_DESAKELURAHAN", "SRS_ID": "SRGI 2013", "KDBBPS": null, "KDCBPS": null, "KDCPUM": "73.72.03", "KDEBPS": null, "KDEPUM": "73.72.03.1007", "KDPBPS": null, "KDPKAB": "73.72", "KDPPUM": "73", "LUASWH": 0, "TIPADM": 2, "WADMKC": "Soreang", "WADMKD": "Bukit Harapan", "WADMKK": "Kota Pare Pare", "WADMPR": "Sulawesi Selatan", "WIADKC": null, "WIADKK": null, "WIADPR": null, "WIADKD": null, "UUPP": "Data dari Pemerintah Daerah", "LUAS": 5.35397837, "id_kab": "7372", "nama_kab": "Kota Pare Pare"}}]}